IRIDIUM 112             
1 41925U 17003J   24323.75256883  .00000214  00000+0  69331-4 0  9992
2 41925  86.3946 328.7805 0002479  98.8749 261.2727 14.34216339410793
IRIDIUM 111             
1 41926U 17003K   24324.08873439  .00000242  00000+0  79181-4 0  9997
2 41926  86.3949 328.6977 0002402  89.8503 270.2968 14.34217908410891
IRIDIUM 113             
1 42803U 17039A   24324.13848143  .00000471  00000+0  16095-3 0  9999
2 42803  86.4021 202.4497 0002388  93.5579 266.5890 14.34214940388767
IRIDIUM 123             
1 42804U 17039B   24323.83110405  .00000555  00000+0  19122-3 0  9996
2 42804  86.3995 234.0249 0002310  77.6493 282.4961 14.34219773387489
IRIDIUM 120             
1 42805U 17039C   24323.92280653  .00000293  00000+0  97408-4 0  9993
2 42805  86.4013 202.3971 0001984  76.9698 283.1719 14.34216053388722
IRIDIUM 115             
1 42806U 17039D   24323.94994977  .00000647  00000+0  18627-3 0  9995
2 42806  86.4549 202.4334 0002349  75.7361 284.4101 14.43283222391298
IRIDIUM 118             
1 42807U 17039E   24323.79305225  .00000553  00000+0  19039-3 0  9995
2 42807  86.3996 234.0415 0002155  86.3918 273.7524 14.34217633387474
IRIDIUM 117             
1 42808U 17039F   24324.16091316  .00000552  00000+0  19016-3 0  9995
2 42808  86.3994 233.8510 0002305  79.5582 280.5874 14.34216647387562
